GLOBALSTAR M084         
1 38040U 11080A   25141.32413183 -.00000085  00000+0  10221-3 0  9995
2 38040  51.9982 130.2537 0000437   2.7323 135.3053 12.62266197619270
GLOBALSTAR M080         
1 38041U 11080B   25141.26796554 -.00000085  00000+0  10233-3 0  9998
2 38041  52.0032 132.0067 0000586  89.2860 283.4013 12.62263059619396
GLOBALSTAR M082         
1 38042U 11080C   25141.55592907 -.00000102  00000+0  11625-4 0  9994
2 38042  52.0073  86.5871 0000707  87.4911  84.6926 12.62266172620137
GLOBALSTAR M092         
1 38043U 11080D   25141.41550010 -.00000101  00000+0  16431-4 0  9998
2 38043  52.0058 177.3923 0000170 110.6503 263.2617 12.62264393618578
GLOBALSTAR M090         
1 38044U 11080E   25141.26078213 -.00000098  00000+0  31736-4 0  9992
2 38044  51.9884  81.3272 0000497  75.0787  75.6725 12.62270200620218
GLOBALSTAR M086         
1 38045U 11080F   25141.60826878 -.00000093  00000+0  61690-4 0  9996
2 38045  51.9897  80.8179 0000552 282.2518 248.7606 12.62271058620201
GLOBALSTAR M097         
1 39072U 13005A   25141.28048354 -.00000095  00000+0  46431-4 0  9993
2 39072  52.0066 356.3380 0000689 102.0013 258.0931 12.62272032567418
GLOBALSTAR M093         
1 39073U 13005B   25141.88746747 -.00000088  00000+0  88919-4 0  9990
2 39073  51.9829 347.8346 0000759 104.3994 255.6957 12.62264687567566
